OBJECT_NAME,OBJECT_ID,EPOCH,MEAN_MOTION,ECCENTRICITY,INCLINATION,RA_OF_ASC_NODE,ARG_OF_PERICENTER,MEAN_ANOMALY,EPHEMERIS_TYPE,CLASSIFICATION_TYPE,NORAD_CAT_ID,ELEMENT_SET_NO,REV_AT_EPOCH,BSTAR,MEAN_MOTION_DOT,MEAN_MOTION_DDOT
ASNARO-2,2018-007A,2026-06-12T18:46:30.910080,15.22432363,.0001837,97.3968,170.7780,93.8450,266.2997,0,U,43152,999,46674,.43036E-3,.9888E-4,0
JILIN-1 07,2018-008E,2026-06-12T20:30:57.026016,15.34653050,.0010118,97.1770,183.8988,78.0298,282.2079,0,U,43159,999,46433,.28554E-3,.9529E-4,0
JILIN-1 08,2018-008F,2026-06-12T20:27:13.078944,15.33664248,.0008088,97.1803,183.2173,91.8417,268.3752,0,U,43160,999,46428,.18736E-3,.6027E-4,0
S-NET D,2018-014G,2026-06-12T04:24:36.819936,15.16627635,.00094216,97.5372,68.0060,45.5733,314.6269,0,U,43186,999,45800,.25737731E-3,.4969E-4,0
S-NET B,2018-014H,2026-06-12T04:40:57.980928,15.16598115,.00099291,97.5379,68.0036,40.8556,319.3419,0,U,43187,999,45800,.26755407E-3,.5165E-4,0
S-NET A,2018-014J,2026-06-12T05:58:02.584128,15.16635862,.00098009,97.5389,68.2645,41.6460,318.5518,0,U,43188,999,45801,.25444843E-3,.4914E-4,0
S-NET C,2018-014K,2026-06-12T06:21:31.304160,15.16590724,.00109797,97.5405,68.3547,33.6648,326.5280,0,U,43189,999,45656,.2730585E-3,.5273E-4,0
PAZ,2018-020A,2026-06-12T19:48:49.034592,15.19158714,.0001694,97.4453,171.2734,87.6322,272.5107,0,U,43215,999,46034,.8684E-4,.1757E-4,0
GOES 17,2018-022A,2026-06-12T05:55:50.419776,1.00270638,.00004559,0.9240,85.7987,26.2240,148.0277,0,U,43226,999,3037,0,-.167E-5,0
LKW-4,2018-025A,2026-06-12T05:03:34.708032,15.61884695,.00017936,97.6337,333.6963,317.2868,42.8250,0,U,43236,999,45925,.52880102E-3,.45974E-3,0
ZHUHAI-1 OVS-02,2018-040B,2026-06-12T20:02:43.120320,15.24970084,.000147,97.0387,181.3228,270.5744,89.5326,0,U,43440,999,45205,.30672E-3,.7582E-4,0
ZHUHAI-1 OHS-02,2018-040C,2026-06-12T21:19:10.916256,15.25821230,.000764,97.0372,188.3080,237.9305,122.1193,0,U,43441,999,11362,.32625E-3,.8285E-4,0
GAOFEN-6,2018-048A,2026-06-12T20:52:26.283360,14.76592394,.0011464,97.8549,226.7291,181.5175,178.6002,0,U,43484,999,43275,.30432E-4,.163E-5,0
LUOJIA-1 01,2018-048B,2026-06-12T20:50:32.133408,14.87267812,.0009978,97.8107,242.1254,129.3629,230.8473,0,U,43485,999,43357,.13215E-3,.1138E-4,0
PAKTES 1A,2018-056A,2026-06-12T20:47:30.789312,14.99092979,.0022318,98.1301,320.1694,119.5536,240.7914,0,U,43529,999,43127,.2805E-3,.3359E-4,0
PRSS-1,2018-056B,2026-06-12T20:50:54.930912,14.81980287,.000166,97.7822,231.8577,75.0792,285.0605,0,U,43530,999,42779,.61299E-4,.435E-5,0
HAIYANG-1C,2018-068A,2026-06-12T20:23:38.092416,14.34176993,.0012029,98.5193,236.2202,105.6058,254.6455,0,U,43609,999,40646,-.70401E-5,-.63E-6,0
SSTL S1-4,2018-071A,2026-06-12T20:59:54.884256,14.96178758,.0001517,97.5050,35.6696,100.9002,259.2391,0,U,43618,999,42229,.11103E-3,.1196E-4,0
HAIYANG-2B,2018-081A,2026-06-12T21:11:50.186400,13.79305391,.0000612,99.3285,172.7041,10.5687,349.5478,0,U,43655,999,38433,-.13912E-3,-.187E-5,0
CZ-4B R/B,2018-081B,2026-06-12T18:47:10.902048,14.31864714,.0203746,99.3683,81.3566,279.5279,78.2931,0,U,43656,999,39867,.48297E-4,.102E-5,0
CFOSAT,2018-083A,2026-06-12T20:53:29.713920,15.16349401,.0002416,97.3602,168.5284,93.6299,266.5211,0,U,43662,999,42178,.17116E-3,.3255E-4,0
TEN-KOH,2018-084G,2026-06-12T19:06:26.671392,15.02927364,.0011132,98.0778,355.9749,127.3102,232.9138,0,U,43677,999,41550,.18256E-3,.2388E-4,0
DIWATA-2B,2018-084H,2026-06-12T20:02:36.276576,15.00433168,.0012232,98.1180,359.8551,184.2462,175.8658,0,U,43678,999,41556,.21983E-3,.2703E-4,0
STARS-AO,2018-084J,2026-06-12T20:27:06.667200,15.17007730,.0002616,98.0511,17.5569,146.2949,213.8450,0,U,43679,999,41681,.31444E-3,.6141E-4,0
AUTCUBE 2,2018-084K,2026-06-12T01:29:05.228448,15.10054600,.0010182,98.0717,8.9653,64.6562,295.5719,0,U,43681,999,41615,.23068032E-3,.3686E-4,0
METOP-C,2018-087A,2026-06-12T18:35:09.367872,14.21510984,.0001611,98.6645,223.4585,134.2821,225.8489,0,U,43689,999,39420,.62427E-4,.93E-6,0
ES'HAIL 2,2018-090A,2026-06-12T18:38:38.860224,1.00268357,.0001494,0.0020,358.2401,123.3765,84.9580,0,U,43700,999,2763,0,.158E-5,0
MOHAMMED VI-B,2018-095A,2026-06-12T20:11:43.339776,14.77112917,.0001264,97.9559,236.2266,94.5539,265.5815,0,U,43717,999,40754,.13116E-3,.876E-5,0
HYSIS,2018-096A,2026-06-12T19:30:39.299040,14.78686965,.0001829,97.9844,230.5953,109.3012,250.8397,0,U,43719,999,40677,.15543E-3,.1088E-4,0
COSMOS 2530 (RODNIK-S 16),2018-097A,2026-06-12T20:51:11.771136,12.42880712,.002034,82.5149,224.9601,48.7440,311.5388,0,U,43751,999,34175,-.34548E-3,-.38E-6,0
COSMOS 2531 (RODNIK-S 17),2018-097B,2026-06-12T19:27:30.826080,12.42912381,.0017818,82.5195,226.0532,67.3852,292.9110,0,U,43752,999,34176,-.71699E-4,0,0
