{"_default": { "9": {"norad_id": "43700", "name": "ES'HAIL 2", "tle1": "1 43700U 18090A   26163.77683866  .00000158  00000-0  00000+0 0  9994", "tle2": "2 43700   0.0020 358.2401 0001494 123.3765  84.9580  1.00268357 27630", "object_type": "PAYLOAD", "criticality_score": 9.0, "last_updated": "2026-06-13T11:16:06.819600+00:00", "maneuver_count": 0, "owner": "AB"}, "10": {"norad_id": "43678", "name": "DIWATA 2B", "tle1": "1 43678U 18084H   26163.83514209  .00002703  00000-0  21983-3 0  9997", "tle2": "2 43678  98.1180 359.8551 0012232 184.2462 175.8658 15.00433168415562", "object_type": "PAYLOAD", "criticality_score": 9.0, "last_updated": "2026-06-13T11:16:06.819600+00:00", "maneuver_count": 0, "owner": "RP"}, "11": {"norad_id": "43677", "name": "TEN-KOH", "tle1": "1 43677U 18084G   26163.79614203  .00002388  00000-0  18256-3 0  9994", "tle2": "2 43677  98.0778 355.9749 0011132 127.3102 232.9138 15.02927364415506", "object_type": "PAYLOAD", "criticality_score": 9.0, "last_updated": "2026-06-13T11:16:06.819600+00:00", "maneuver_count": 0, "owner": "JPN"}, "42": {"norad_id": "43681", "name": "AUTCUBE 2", "tle1": "1 43681U 18084K   26163.06186607  .00003686  00000-0  23068-3 0  9990", "tle2": "2 43681  98.0717   8.9653 0010182  64.6562 295.5719 15.10054600416155", "object_type": "PAYLOAD", "criticality_score": 9.0, "last_updated": "2026-06-13T11:16:06.819600+00:00", "maneuver_count": 0, "owner": "JPN"}, "43": {"norad_id": "43656", "name": "CZ-4B R/B", "tle1": "1 43656U 18081B   26163.78276507  .00000102  00000-0  48297-4 0  9999", "tle2": "2 43656  99.3683  81.3566 0203746 279.5279  78.2931 14.31864714398678", "object_type": "ROCKET_BODY", "criticality_score": 9.0, "last_updated": "2026-06-13T11:16:06.819600+00:00", "maneuver_count": 0, "owner": "PRC"}, "76": {"norad_id": "43186", "name": "S-NET D", "tle1": "1 43186U 18014G   26163.18375949  .00004969  00000-0  25738-3 0  9996", "tle2": "2 43186  97.5372  68.0060 0009422  45.5733 314.6269 15.16627635458001", "object_type": "PAYLOAD", "criticality_score": 9.0, "last_updated": "2026-06-13T11:16:06.819600+00:00", "maneuver_count": 0, "owner": "GER"}, "77": {"norad_id": "43189", "name": "S-NET C", "tle1": "1 43189U 18014K   26163.26494565  .00005273  00000-0  27306-3 0  9996", "tle2": "2 43189  97.5405  68.3547 0010980  33.6648 326.5280 15.16590724456560", "object_type": "PAYLOAD", "criticality_score": 9.0, "last_updated": "2026-06-13T11:16:06.819600+00:00", "maneuver_count": 0, "owner": "GER"}, "78": {"norad_id": "43187", "name": "S-NET B", "tle1": "1 43187U 18014H   26163.19511552  .00005165  00000-0  26755-3 0  9999", "tle2": "2 43187  97.5379  68.0036 0009929  40.8556 319.3419 15.16598115458004", "object_type": "PAYLOAD", "criticality_score": 9.0, "last_updated": "2026-06-13T11:16:06.819600+00:00", "maneuver_count": 0, "owner": "GER"}, "79": {"norad_id": "43188", "name": "S-NET A", "tle1": "1 43188U 18014J   26163.24864102  .00004914  00000-0  25445-3 0  9994", "tle2": "2 43188  97.5389  68.2645 0009801  41.6460 318.5518 15.16635862458019", "object_type": "PAYLOAD", "criticality_score": 9.0, "last_updated": "2026-06-13T11:16:06.819600+00:00", "maneuver_count": 0, "owner": "GER"}, "105": {"norad_id": "43689", "name": "METOP-C", "tle1": "1 43689U 18087A   26163.77441398  .00000093  00000-0  62427-4 0  9992", "tle2": "2 43689  98.6645 223.4585 0001611 134.2821 225.8489 14.21510984394200", "object_type": "PAYLOAD", "criticality_score": 9.0, "last_updated": "2026-06-13T11:16:06.819600+00:00", "maneuver_count": 0, "owner": "EUME"}, "106": {"norad_id": "43679", "name": "STARS-AO", "tle1": "1 43679U 18084J   26163.85216050  .00006141  00000-0  31444-3 0  9996", "tle2": "2 43679  98.0511  17.5569 0002616 146.2949 213.8450 15.17007730416812", "object_type": "PAYLOAD", "criticality_score": 9.0, "last_updated": "2026-06-13T11:16:06.819600+00:00", "maneuver_count": 0, "owner": "JPN"}, "137": {"norad_id": "43485", "name": "LUOJIA-1 01", "tle1": "1 43485U 18048B   26163.86842747  .00001138  00000-0  13215-3 0  9997", "tle2": "2 43485  97.8107 242.1254 0009978 129.3629 230.8473 14.87267812433578", "object_type": "PAYLOAD", "criticality_score": 9.0, "last_updated": "2026-06-13T11:16:06.819600+00:00", "maneuver_count": 0, "owner": "PRC"}, "194": {"norad_id": "43159", "name": "JILIN-01-07", "tle1": "1 43159U 18008E   26163.85482669  .00009529  00000-0  28554-3 0  9997", "tle2": "2 43159  97.1770 183.8988 0010118  78.0298 282.2079 15.34653050464337", "object_type": "PAYLOAD", "criticality_score": 9.0, "last_updated": "2026-06-13T11:16:06.819600+00:00", "maneuver_count": 0, "owner": "PRC"}, "195": {"norad_id": "43160", "name": "JILIN-01-08", "tle1": "1 43160U 18008F   26163.85223471  .00006027  00000-0  18736-3 0  9994", "tle2": "2 43160  97.1803 183.2173 0008088  91.8417 268.3752 15.33664248464282", "object_type": "PAYLOAD", "criticality_score": 9.0, "last_updated": "2026-06-13T11:16:06.819600+00:00", "maneuver_count": 0, "owner": "PRC"}, "226": {"norad_id": "43441", "name": "ZHUHAI-1 OHS-02", "tle1": "1 43441U 18040C   26163.88832079  .00008285  00000-0  32625-3 0  9996", "tle2": "2 43441  97.0372 188.3080 0007640 237.9305 122.1193 15.25821230113621", "object_type": "PAYLOAD", "criticality_score": 9.0, "last_updated": "2026-06-13T11:16:06.819600+00:00", "maneuver_count": 0, "owner": "PRC"}, "233": {"norad_id": "43440", "name": "ZHUHAI-1 OVS-02", "tle1": "1 43440U 18040B   26163.83522130  .00007582  00000-0  30672-3 0  9993", "tle2": "2 43440  97.0387 181.3228 0001470 270.5744  89.5326 15.24970084452056", "object_type": "PAYLOAD", "criticality_score": 9.0, "last_updated": "2026-06-13T11:16:06.819600+00:00", "maneuver_count": 0, "owner": "PRC"}, "291": {"norad_id": "43618", "name": "SSTL S1-4", "tle1": "1 43618U 18071A   26163.87494079  .00001196  00000-0  11103-3 0  9991", "tle2": "2 43618  97.5050  35.6696 0001517 100.9002 259.2391 14.96178758422297", "object_type": "PAYLOAD", "criticality_score": 9.0, "last_updated": "2026-06-13T11:16:06.819600+00:00", "maneuver_count": 0, "owner": "UK"}, "292": {"norad_id": "43717", "name": "MOHAMMED VI-B", "tle1": "1 43717U 18095A   26163.84147384  .00000876  00000-0  13116-3 0  9998", "tle2": "2 43717  97.9559 236.2266 0001264  94.5539 265.5815 14.77112917407545", "object_type": "PAYLOAD", "criticality_score": 9.0, "last_updated": "2026-06-13T11:16:06.819600+00:00", "maneuver_count": 0, "owner": "MA"}, "305": {"norad_id": "43226", "name": "GOES 17", "tle1": "1 43226U 18022A   26163.24711134 -.00000167  00000-0  00000-0 0  9996", "tle2": "2 43226   0.9240  85.7987 0000456  26.2240 148.0277  1.00270638 30378", "object_type": "PAYLOAD", "criticality_score": 9.0, "last_updated": "2026-06-13T11:16:06.819600+00:00", "maneuver_count": 0, "owner": "US"}, "409": {"norad_id": "43484", "name": "GAOFEN 6", "tle1": "1 43484U 18048A   26163.86974865  .00000163  00000-0  30432-4 0  9991", "tle2": "2 43484  97.8549 226.7291 0011464 181.5175 178.6002 14.76592394432755", "object_type": "PAYLOAD", "criticality_score": 9.0, "last_updated": "2026-06-13T11:16:06.819600+00:00", "maneuver_count": 0, "owner": "PRC"}, "417": {"norad_id": "43152", "name": "ASNARO-2", "tle1": "1 43152U 18007A   26163.78230220  .00009888  00000-0  43036-3 0  9995", "tle2": "2 43152  97.3968 170.7780 0001837  93.8450 266.2997 15.22432363466746", "object_type": "PAYLOAD", "criticality_score": 9.0, "last_updated": "2026-06-13T11:16:06.819600+00:00", "maneuver_count": 0, "owner": "JPN"}, "421": {"norad_id": "43719", "name": "HYSIS", "tle1": "1 43719U 18096A   26163.81295485  .00001088  00000-0  15543-3 0  9996", "tle2": "2 43719  97.9844 230.5953 0001829 109.3012 250.8397 14.78686965406778", "object_type": "PAYLOAD", "criticality_score": 9.0, "last_updated": "2026-06-13T11:16:06.819600+00:00", "maneuver_count": 0, "owner": "IND"}, "422": {"norad_id": "43662", "name": "CFOSAT", "tle1": "1 43662U 18083A   26163.87048280  .00003255  00000-0  17116-3 0  9990", "tle2": "2 43662  97.3602 168.5284 0002416  93.6299 266.5211 15.16349401421784", "object_type": "PAYLOAD", "criticality_score": 9.0, "last_updated": "2026-06-13T11:16:06.819600+00:00", "maneuver_count": 0, "owner": "PRC"}, "440": {"norad_id": "43609", "name": "HAIYANG 1C", "tle1": "1 43609U 18068A   26163.84974644 -.00000063  00000-0 -70401-5 0  9997", "tle2": "2 43609  98.5193 236.2202 0012029 105.6058 254.6455 14.34176993406463", "object_type": "PAYLOAD", "criticality_score": 9.0, "last_updated": "2026-06-13T11:16:06.819600+00:00", "maneuver_count": 0, "owner": "PRC"}, "480": {"norad_id": "43529", "name": "PAKTES 1A", "tle1": "1 43529U 18056A   26163.86632858  .00003359  00000-0  28050-3 0  9995", "tle2": "2 43529  98.1301 320.1694 0022318 119.5536 240.7914 14.99092979431271", "object_type": "PAYLOAD", "criticality_score": 9.0, "last_updated": "2026-06-13T11:16:06.819600+00:00", "maneuver_count": 0, "owner": "PAKI"}, "482": {"norad_id": "43530", "name": "PRSS 1", "tle1": "1 43530U 18056B   26163.86869133  .00000435  00000-0  61299-4 0  9990", "tle2": "2 43530  97.7822 231.8577 0001660  75.0792 285.0605 14.81980287427791", "object_type": "PAYLOAD", "criticality_score": 9.0, "last_updated": "2026-06-13T11:16:06.819600+00:00", "maneuver_count": 0, "owner": "PAKI"}, "532": {"norad_id": "43236", "name": "LKW-4", "tle1": "1 43236U 18025A   26163.21081838  .00045974  00000-0  52880-3 0  9998", "tle2": "2 43236  97.6337 333.6963 0001794 317.2868  42.8250 15.61884695459253", "object_type": "PAYLOAD", "criticality_score": 9.0, "last_updated": "2026-06-13T11:16:06.819600+00:00", "maneuver_count": 0, "owner": "PRC"}, "535": {"norad_id": "43655", "name": "HAIYANG 2B", "tle1": "1 43655U 18081A   26163.88321975 -.00000187  00000-0 -13912-3 0  9999", "tle2": "2 43655  99.3285 172.7041 0000612  10.5687 349.5478 13.79305391384331", "object_type": "PAYLOAD", "criticality_score": 9.0, "last_updated": "2026-06-13T11:16:06.819600+00:00", "maneuver_count": 0, "owner": "PRC"}, "608": {"norad_id": "43751", "name": "COSMOS 2530", "tle1": "1 43751U 18097A   26163.86888624 -.00000038  00000-0 -34548-3 0  9993", "tle2": "2 43751  82.5149 224.9601 0020340  48.7440 311.5388 12.42880712341755", "object_type": "PAYLOAD", "criticality_score": 9.0, "last_updated": "2026-06-13T11:16:06.819600+00:00", "maneuver_count": 0, "owner": "CIS"}, "609": {"norad_id": "43752", "name": "COSMOS 2531", "tle1": "1 43752U 18097B   26163.81077345  .00000000  00000-0 -71699-4 0  9996", "tle2": "2 43752  82.5195 226.0532 0017818  67.3852 292.9110 12.42912381341767", "object_type": "PAYLOAD", "criticality_score": 9.0, "last_updated": "2026-06-13T11:16:06.819600+00:00", "maneuver_count": 0, "owner": "CIS"}, "641": {"norad_id": "43215", "name": "PAZ", "tle1": "1 43215U 18020A   26163.82556753  .00001757  00000-0  86840-4 0  9995", "tle2": "2 43215  97.4453 171.2734 0001694  87.6322 272.5107 15.19158714460345", "object_type": "PAYLOAD", "criticality_score": 9.0, "last_updated": "2026-06-13T11:16:06.819600+00:00", "maneuver_count": 0, "owner": "SPN"}}}